STARLINK-4343           
1 53050U 22077H   22349.42000327 -.00000336  00000+0 -21549-4 0  9997
2 53050  97.6516 168.1196 0000902 342.3488  17.7704 15.01258973 24412
STARLINK-4336           
1 53051U 22077J   22349.41444273  .00004895  00000+0  38538-3 0  9996
2 53051  97.6531 168.1139 0000858 217.8499 142.2665 15.01267256 24419
STARLINK-4341           
1 53052U 22077K   22349.01823333 -.00000209  00000+0 -11688-4 0  9996
2 53052  97.6533 167.7240 0000798 320.9863  39.1303 15.01260740 24351
STARLINK-4337           
1 53053U 22077L   22349.07748117 -.00000419  00000+0 -28007-4 0  9995
2 53053  97.6535 167.7796 0001150 203.2198 156.8975 15.01261131 24365
STARLINK-4339           
1 53054U 22077M   22348.74977218 -.00000247  00000+0 -14630-4 0  9991
2 53054  97.6521 167.4582 0000344 244.5045 115.6144 15.01267958 23738
STARLINK-4338           
1 53055U 22077N   22349.47554610 -.00000636  00000+0 -44899-4 0  9992
2 53055  97.6535 168.1695 0001774 182.7945 177.3269 15.01262113 24425
STARLINK-4314           
1 53056U 22077P   22348.74607793 -.00001631  00000+0 -12244-3 0  9997
2 53056  97.6523 167.4527 0000515 205.7271 154.3927 15.01263122 23739
STARLINK-4252           
1 53057U 22077Q   22349.07192704  .00000521  00000+0  45150-4 0  9994
2 53057  97.6538 167.7691 0000971 132.8112 227.3194 15.01258816 24362
STARLINK-4317           
1 53058U 22077R   22349.47579278  .00000929  00000+0  76905-4 0  9998
2 53058  97.6522 168.1711 0001112 180.3784 179.7440 15.01262615 23843
STARLINK-4320           
1 53059U 22077S   22348.53524581  .00001316  00000+0  10701-3 0  9994
2 53059  97.6536 167.2392 0000543  94.3180 265.8106 15.01263915 24284
STARLINK-4305           
1 53060U 22077T   22349.47368478 -.00005492  00000+0 -42324-3 0  9998
2 53060  97.6526 168.1651 0001543 178.2254 181.8976 15.01270685 24428
STARLINK-4308           
1 53061U 22077U   22349.46628137  .00001815  00000+0  14583-3 0  9998
2 53061  97.6551 168.1575 0000619 353.3635   6.7581 15.01264900 24424
STARLINK-4311           
1 53062U 22077V   22349.46999422 -.00000623  00000+0 -43908-4 0  9999
2 53062  97.6552 168.1620 0000783 140.6527 219.4754 15.01257512 24422
STARLINK-4307           
1 53063U 22077W   22349.41276277  .00000505  00000+0  44801-4 0  9991
2 53063  97.6500 168.1624 0002795 176.7863 183.3379 15.00453129 24421
STARLINK-4313           
1 53064U 22077X   22349.46812634 -.00005950  00000+0 -45883-3 0  9991
2 53064  97.6526 168.1582 0000446 102.6726 257.4548 15.01275994 24424
STARLINK-4312           
1 53065U 22077Y   22349.06266752  .00001982  00000+0  15885-3 0  9990
2 53065  97.6553 167.7590 0001796  40.1391 319.9966 15.01263566 24365
STARLINK-4309           
1 53066U 22077Z   22348.46465257 -.00001180  00000+0 -87321-4 0  9992
2 53066  97.6554 167.1693 0001735  81.7140 278.4281 15.01254075 24275
STARLINK-4306           
1 53067U 22077AA  22348.45909866  .00000424  00000+0  37625-4 0  9991
2 53067  97.6578 167.1677 0002155  47.2244 312.9162 15.01259027 24277
STARLINK-4325           
1 53068U 22077AB  22349.46097711  .00001014  00000+0  83557-4 0  9992
2 53068  97.6571 168.1541 0002111  28.7880 331.3460 15.01262910 24422
STARLINK-4323           
1 53069U 22077AC  22349.45518072  .00001221  00000+0  99606-4 0  9992
2 53069  97.6580 168.1646 0002396  28.8769 331.2588 15.01260186 24424
STARLINK-4342           
1 53070U 22077AD  22348.46094824  .00002427  00000+0  19344-3 0  9997
2 53070  97.6569 167.1682 0002326  37.9071 322.2316 15.01261224 24278
STARLINK-4328           
1 53071U 22077AE  22349.45333065  .00000045  00000+0  81418-5 0  9998
2 53071  97.6587 168.1653 0002644  27.7547 332.3818 15.01256749 24428
STARLINK-4344           
1 53072U 22077AF  22348.99048144 -.00001180  00000+0 -87271-4 0  9993
2 53072  97.6615 167.7015 0002176  30.7548 329.3803 15.01246780 24359
STARLINK-4346           
1 53073U 22077AG  22349.44962123  .00001351  00000+0  10972-3 0  9998
2 53073  97.6560 168.1675 0002987  25.4774 334.6597 15.01267198 24421
STARLINK-4310           
1 53074U 22077AH  22349.45358932  .00001745  00000+0  14041-3 0  9995
2 53074  97.6591 168.1654 0002490  25.0722 335.0623 15.01262799 24428
STARLINK-4348           
1 53075U 22077AJ  22349.44616811 -.00000046  00000+0  10396-5 0  9993
2 53075  97.6549 168.1705 0002992  15.5023 344.6293 15.01258938 24423
STARLINK-4347           
1 53076U 22077AK  22349.45148248  .00000413  00000+0  36786-4 0  9996
2 53076  97.6576 168.1653 0002785  23.0362 337.0987 15.01255676 24428
STARLINK-4315           
1 53077U 22077AL  22349.44406948 -.00000071  00000+0 -93063-6 0  9995
2 53077  97.6550 168.1708 0003254  19.5352 340.5996 15.01262831 24423
STARLINK-4322           
1 53078U 22077AM  22348.78124370  .00001777  00000+0  14287-3 0  9998
2 53078  97.6565 167.5107 0003205  13.7596 346.3715 15.01265159 23741
STARLINK-4327           
1 53079U 22077AN  22349.44222287 -.00000004  00000+0  42922-5 0  9991
2 53079  97.6540 168.1704 0003231  13.9618 346.1695 15.01260748 24421
