OBJECT_NAME,OBJECT_ID,EPOCH,MEAN_MOTION,ECCENTRICITY,INCLINATION,RA_OF_ASC_NODE,ARG_OF_PERICENTER,MEAN_ANOMALY,EPHEMERIS_TYPE,CLASSIFICATION_TYPE,NORAD_CAT_ID,ELEMENT_SET_NO,REV_AT_EPOCH,BSTAR,MEAN_MOTION_DOT,MEAN_MOTION_DDOT
STARLINK-4343,2022-077H,2022-12-15T10:04:48.282528,15.01258973,.0000902,97.6516,168.1196,342.3488,17.7704,0,U,53050,999,2441,-.21549E-4,-.336E-5,0
STARLINK-4336,2022-077J,2022-12-15T09:56:47.851872,15.01267256,.0000858,97.6531,168.1139,217.8499,142.2665,0,U,53051,999,2441,.38538E-3,.4895E-4,0
STARLINK-4341,2022-077K,2022-12-15T00:26:15.359712,15.01260740,.0000798,97.6533,167.7240,320.9863,39.1303,0,U,53052,999,2435,-.11688E-4,-.209E-5,0
STARLINK-4337,2022-077L,2022-12-15T01:51:34.373088,15.01261131,.000115,97.6535,167.7796,203.2198,156.8975,0,U,53053,999,2436,-.28007E-4,-.419E-5,0
STARLINK-4339,2022-077M,2022-12-14T17:59:40.316352,15.01267958,.0000344,97.6521,167.4582,244.5045,115.6144,0,U,53054,999,2373,-.1463E-4,-.247E-5,0
STARLINK-4338,2022-077N,2022-12-15T11:24:47.183040,15.01262113,.0001774,97.6535,168.1695,182.7945,177.3269,0,U,53055,999,2442,-.44899E-4,-.636E-5,0
STARLINK-4314,2022-077P,2022-12-14T17:54:21.133152,15.01263122,.0000515,97.6523,167.4527,205.7271,154.3927,0,U,53056,999,2373,-.12244E-3,-.1631E-4,0
STARLINK-4252,2022-077Q,2022-12-15T01:43:34.496256,15.01258816,.0000971,97.6538,167.7691,132.8112,227.3194,0,U,53057,999,2436,.4515E-4,.521E-5,0
STARLINK-4317,2022-077R,2022-12-15T11:25:08.496192,15.01262615,.0001112,97.6522,168.1711,180.3784,179.7440,0,U,53058,999,2384,.76905E-4,.929E-5,0
STARLINK-4320,2022-077S,2022-12-14T12:50:45.237984,15.01263915,.0000543,97.6536,167.2392,94.3180,265.8106,0,U,53059,999,2428,.10701E-3,.1316E-4,0
STARLINK-4305,2022-077T,2022-12-15T11:22:06.364992,15.01270685,.0001543,97.6526,168.1651,178.2254,181.8976,0,U,53060,999,2442,-.42324E-3,-.5492E-4,0
STARLINK-4308,2022-077U,2022-12-15T11:11:26.710368,15.01264900,.0000619,97.6551,168.1575,353.3635,6.7581,0,U,53061,999,2442,.14583E-3,.1815E-4,0
STARLINK-4311,2022-077V,2022-12-15T11:16:47.500608,15.01257512,.0000783,97.6552,168.1620,140.6527,219.4754,0,U,53062,999,2442,-.43908E-4,-.623E-5,0
STARLINK-4307,2022-077W,2022-12-15T09:54:22.703328,15.00453129,.0002795,97.6500,168.1624,176.7863,183.3379,0,U,53063,999,2442,.44801E-4,.505E-5,0
STARLINK-4313,2022-077X,2022-12-15T11:14:06.115776,15.01275994,.0000446,97.6526,168.1582,102.6726,257.4548,0,U,53064,999,2442,-.45883E-3,-.595E-4,0
STARLINK-4312,2022-077Y,2022-12-15T01:30:14.473728,15.01263566,.0001796,97.6553,167.7590,40.1391,319.9966,0,U,53065,999,2436,.15885E-3,.1982E-4,0
STARLINK-4309,2022-077Z,2022-12-14T11:09:05.982048,15.01254075,.0001735,97.6554,167.1693,81.7140,278.4281,0,U,53066,999,2427,-.87321E-4,-.118E-4,0
STARLINK-4306,2022-077AA,2022-12-14T11:01:06.124224,15.01259027,.0002155,97.6578,167.1677,47.2244,312.9162,0,U,53067,999,2427,.37625E-4,.424E-5,0
STARLINK-4325,2022-077AB,2022-12-15T11:03:48.422304,15.01262910,.0002111,97.6571,168.1541,28.7880,331.3460,0,U,53068,999,2442,.83557E-4,.1014E-4,0
STARLINK-4323,2022-077AC,2022-12-15T10:55:27.614208,15.01260186,.0002396,97.6580,168.1646,28.8769,331.2588,0,U,53069,999,2442,.99606E-4,.1221E-4,0
STARLINK-4342,2022-077AD,2022-12-14T11:03:45.927936,15.01261224,.0002326,97.6569,167.1682,37.9071,322.2316,0,U,53070,999,2427,.19344E-3,.2427E-4,0
STARLINK-4328,2022-077AE,2022-12-15T10:52:47.768160,15.01256749,.0002644,97.6587,168.1653,27.7547,332.3818,0,U,53071,999,2442,.81418E-5,.45E-6,0
STARLINK-4344,2022-077AF,2022-12-14T23:46:17.596416,15.01246780,.0002176,97.6615,167.7015,30.7548,329.3803,0,U,53072,999,2435,-.87271E-4,-.118E-4,0
STARLINK-4346,2022-077AG,2022-12-15T10:47:27.274272,15.01267198,.0002987,97.6560,168.1675,25.4774,334.6597,0,U,53073,999,2442,.10972E-3,.1351E-4,0
STARLINK-4310,2022-077AH,2022-12-15T10:53:10.117248,15.01262799,.000249,97.6591,168.1654,25.0722,335.0623,0,U,53074,999,2442,.14041E-3,.1745E-4,0
STARLINK-4348,2022-077AJ,2022-12-15T10:42:28.924704,15.01258938,.0002992,97.6549,168.1705,15.5023,344.6293,0,U,53075,999,2442,.10396E-5,-.46E-6,0
STARLINK-4347,2022-077AK,2022-12-15T10:50:08.086272,15.01255676,.0002785,97.6576,168.1653,23.0362,337.0987,0,U,53076,999,2442,.36786E-4,.413E-5,0
STARLINK-4315,2022-077AL,2022-12-15T10:39:27.603072,15.01262831,.0003254,97.6550,168.1708,19.5352,340.5996,0,U,53077,999,2442,-.93063E-6,-.71E-6,0
STARLINK-4322,2022-077AM,2022-12-14T18:44:59.455680,15.01265159,.0003205,97.6565,167.5107,13.7596,346.3715,0,U,53078,999,2374,.14287E-3,.1777E-4,0
STARLINK-4327,2022-077AN,2022-12-15T10:36:48.055968,15.01260748,.0003231,97.6540,168.1704,13.9618,346.1695,0,U,53079,999,2442,.42922E-5,-.4E-7,0
